SENTINEL-6              
1 46984U 20086A   23249.48871407 -.00000061  00000+0  27102-6 0  9991
2 46984  66.0401  82.5915 0007849 268.4449  91.5667 12.80929551130364
